NORAD_CAT_ID,OBJECT_NAME,OBJECT_TYPE,EPOCH,MEAN_MOTION,ECCENTRICITY,INCLINATION,RA_OF_ASC_NODE,ARG_OF_PERICENTER,MEAN_ANOMALY,BSTAR,MEAN_MOTION_DOT,MEAN_MOTION_DDOT,TLE_LINE0,TLE_LINE1,TLE_LINE2,SEMIMAJOR_AXIS,PERIOD,APOGEE,PERIGEE,DECAYED
52556.0,STARLINK-3763,PAYLOAD,2024-01-27 21:03:13,15.12116997,0.0001415,53.2203,342.3232,101.2038,258.9114,1.0342e-06,-2.79e-06,0.0,0 STARLINK-3763,1 52556U 22051Z   24027.87724246 -.00000279  00000-0  10342-5 0  9992,2 52556  53.2203 342.3232 0001415 101.2038 258.9114 15.12116997 95090,6907.882,95.231,530.724,528.77,0.0
52556.0,STARLINK-3763,PAYLOAD,2024-01-28 03:23:56,15.12117298,0.0001358,53.2198,341.132,102.9349,257.1796,4.7827e-06,-2.14e-06,0.0,0 STARLINK-3763,1 52556U 22051Z   24028.14162710 -.00000214  00000-0  47827-5 0  9992,2 52556  53.2198 341.1320 0001358 102.9349 257.1796 15.12117298 95202,6907.881,95.231,530.684,528.808,0.0
52556.0,STARLINK-3763,PAYLOAD,2024-01-29 06:21:58,15.12117776,0.0001348,53.2197,336.0623,88.2224,271.8924,3.6441e-05,3.38e-06,0.0,0 STARLINK-3763,1 52556U 22051Z   24029.26526399  .00000338  00000-0  36441-4 0  9998,2 52556  53.2197 336.0623 0001348  88.2224 271.8924 15.12117776 95372,6907.88,95.231,530.676,528.813,0.0
52556.0,STARLINK-3763,PAYLOAD,2024-01-30 02:59:18,15.12110507,0.0001477,53.2194,332.1838,107.0815,253.034,-3.1036e-05,-8.38e-06,0.0,0 STARLINK-3763,1 52556U 22051Z   24030.12452368 -.00000838  00000-0 -31036-4 0  9991,2 52556  53.2194 332.1838 0001477 107.0815 253.0340 15.12110507 95507,6907.902,95.231,530.787,528.746,0.0
52556.0,STARLINK-3763,PAYLOAD,2024-01-30 20:26:16,15.12113959,0.0001561,53.2198,328.9022,106.4972,253.6193,-2.9225e-06,-3.48e-06,0.0,0 STARLINK-3763,1 52556U 22051Z   24030.85158120 -.00000348  00000-0 -29225-5 0  9994,2 52556  53.2198 328.9022 0001561 106.4972 253.6193 15.12113959 95540,6907.891,95.231,530.835,528.678,0.0
52556.0,STARLINK-3763,PAYLOAD,2024-01-31 02:46:59,15.12112252,0.0001586,53.2191,327.7094,117.5759,242.5396,-2.2103e-05,-6.82e-06,0.0,0 STARLINK-3763,1 52556U 22051Z   24031.11596810 -.00000682  00000-0 -22103-4 0  9994,2 52556  53.2191 327.7094 0001586 117.5759 242.5396 15.12112252 95583,6907.896,95.231,530.857,528.666,0.0
52556.0,STARLINK-3763,PAYLOAD,2024-01-31 20:13:57,15.12112311,0.0001386,53.2187,324.4303,110.2078,249.9065,-7.4313e-06,-4.27e-06,0.0,0 STARLINK-3763,1 52556U 22051Z   24031.84302929 -.00000427  00000-0 -74313-5 0  9998,2 52556  53.2187 324.4303 0001386 110.2078 249.9065 15.12112311 95767,6907.896,95.231,530.719,528.804,0.0
52556.0,STARLINK-3763,PAYLOAD,2024-02-01 00:59:29,15.1211336,0.0001402,53.2187,323.5362,109.6521,250.4624,-2.1839e-06,-3.35e-06,0.0,0 STARLINK-3763,1 52556U 22051Z   24032.04131789 -.00000335  00000-0 -21839-5 0  9998,2 52556  53.2187 323.5362 0001402 109.6521 250.4624 15.12113360 95725,6907.893,95.231,530.727,528.79,0.0
52556.0,STARLINK-3763,PAYLOAD,2024-02-02 02:22:21,15.1211435,0.0001333,53.2185,318.7652,105.3873,254.7268,1.793e-05,1.5e-07,0.0,0 STARLINK-3763,1 52556U 22051Z   24033.09885894  .00000015  00000-0  17930-4 0  9996,2 52556  53.2185 318.7652 0001333 105.3873 254.7268 15.12114350 95953,6907.89,95.231,530.676,528.834,0.0
52556.0,STARLINK-3763,PAYLOAD,2024-02-03 02:10:02,15.12117773,0.0001231,53.2183,314.2941,88.8156,271.2979,3.3434e-07,-2.92e-06,0.0,0 STARLINK-3763,1 52556U 22051Z   24034.09030518 -.00000292  00000-0  33434-6 0  9999,2 52556  53.2183 314.2941 0001231  88.8156 271.2979 15.12117773 96034,6907.88,95.231,530.595,528.894,0.0
52556.0,STARLINK-3763,PAYLOAD,2024-02-04 03:32:53,15.12119444,0.0002018,53.22,309.515,56.9408,303.178,3.364e-05,2.88e-06,0.0,0 STARLINK-3763,1 52556U 22051Z   24035.14784709  .00000288  00000-0  33640-4 0  9995,2 52556  53.2200 309.5150 0002018  56.9408 303.1780 15.12119444 96260,6907.875,95.231,531.134,528.346,0.0
52556.0,STARLINK-3763,PAYLOAD,2024-02-04 22:35:02,15.12118628,0.000152,53.2192,305.9404,96.998,263.1187,-1.7467e-05,-6.02e-06,0.0,0 STARLINK-3763,1 52556U 22051Z   24035.94100356 -.00000602  00000-0 -17467-4 0  9994,2 52556  53.2192 305.9404 0001520  96.9980 263.1187 15.12118628 96313,6907.877,95.231,530.792,528.692,0.0
52556.0,STARLINK-3763,PAYLOAD,2024-02-05 11:16:28,15.12118019,0.0001525,53.2191,303.5554,84.954,275.1628,-3.2497e-05,-8.64e-06,0.0,0 STARLINK-3763,1 52556U 22051Z   24036.46977613 -.00000864  00000-0 -32497-4 0  9990,2 52556  53.2191 303.5554 0001525  84.9540 275.1628 15.12118019 96469,6907.879,95.231,530.797,528.69,0.0
52556.0,STARLINK-3763,PAYLOAD,2024-02-05 22:22:43,15.12121653,0.0001267,53.2173,301.4666,99.1459,260.9678,1.0283e-06,-2.79e-06,0.0,0 STARLINK-3763,1 52556U 22051Z   24036.93244558 -.00000279  00000-0  10283-5 0  9996,2 52556  53.2173 301.4666 0001267  99.1459 260.9678 15.12121653 96465,6907.868,95.23,530.608,528.858,0.0
52556.0,STARLINK-3763,PAYLOAD,2024-02-06 03:08:15,15.12120571,0.0001269,53.2172,300.5729,94.8234,265.2904,-8.6671e-06,-4.48e-06,0.0,0 STARLINK-3763,1 52556U 22051Z   24037.13073547 -.00000448  00000-0 -86671-5 0  9990,2 52556  53.2172 300.5729 0001269  94.8234 265.2904 15.12120571 96490,6907.871,95.231,530.613,528.86,0.0
52556.0,STARLINK-3763,PAYLOAD,2024-02-06 22:10:24,15.1211597,0.0001117,53.2167,296.9937,98.3086,261.8035,6.7183e-06,-1.8e-06,0.0,0 STARLINK-3763,1 52556U 22051Z   24037.92389250 -.00000180  00000-0  67183-5 0  9997,2 52556  53.2167 296.9937 0001117  98.3086 261.8035 15.12115970 96617,6907.885,95.231,530.522,528.979,0.0
52556.0,STARLINK-3763,PAYLOAD,2024-02-06 23:45:35,15.12113731,0.0001076,53.2166,296.6957,98.4176,261.694,-1.0176e-05,-4.75e-06,0.0,0 STARLINK-3763,1 52556U 22051Z   24037.98999087 -.00000475  00000-0 -10176-4 0  9995,2 52556  53.2166 296.6957 0001076  98.4176 261.6940 15.12113731 96694,6907.892,95.231,530.5,529.014,0.0
52556.0,STARLINK-3763,PAYLOAD,2024-02-07 21:58:05,15.12114675,0.000109,53.2167,292.5207,97.4203,262.6914,-5.8506e-06,-3.99e-06,0.0,0 STARLINK-3763,1 52556U 22051Z   24038.91533954 -.00000399  00000-0 -58506-5 0  9991,2 52556  53.2167 292.5207 0001090  97.4203 262.6914 15.12114675 96762,6907.889,95.231,530.507,529.001,0.0
52556.0,STARLINK-3763,PAYLOAD,2024-02-08 02:43:37,15.12116702,0.0001115,53.2167,291.6266,97.9225,262.1895,-8.346e-06,-4.43e-06,0.0,0 STARLINK-3763,1 52556U 22051Z   24039.11362737 -.00000443  00000-0 -83460-5 0  9990,2 52556  53.2167 291.6266 0001115  97.9225 262.1895 15.12116702 96861,6907.883,95.231,530.518,528.978,0.0
52556.0,STARLINK-3763,PAYLOAD,2024-02-08 21:45:46,15.12111091,0.0001143,53.2171,288.0469,98.4909,261.6214,1.8988e-05,3.3e-07,0.0,0 STARLINK-3763,1 52556U 22051Z   24039.90678572  .00000033  00000-0  18988-4 0  9999,2 52556  53.2171 288.0469 0001143  98.4909 261.6214 15.12111091 96918,6907.9,95.231,530.555,528.975,0.0
52556.0,STARLINK-3763,PAYLOAD,2024-02-08 23:20:57,15.12111187,0.000114,53.2171,287.7487,97.4941,262.6182,1.8706e-05,2.9e-07,0.0,0 STARLINK-3763,1 52556U 22051Z   24039.97288218  .00000029  00000-0  18706-4 0  9993,2 52556  53.2171 287.7487 0001140  97.4941 262.6182 15.12111187 96928,6907.9,95.231,530.552,528.977,0.0
52556.0,STARLINK-3763,PAYLOAD,2024-02-09 19:58:16,15.1211131,0.0001173,53.2171,283.8718,98.3138,261.7988,-1.4468e-05,-5.49e-06,0.0,0 STARLINK-3763,1 52556U 22051Z   24040.83213750 -.00000549  00000-0 -14468-4 0  9999,2 52556  53.2171 283.8718 0001173  98.3138 261.7988 15.12111310 97121,6907.899,95.231,530.575,528.954,0.0
52556.0,STARLINK-3763,PAYLOAD,2024-02-09 23:08:38,15.12111557,0.000117,53.2171,283.2754,97.0849,263.0278,-1.3255e-05,-5.28e-06,0.0,0 STARLINK-3763,1 52556U 22051Z   24040.96433025 -.00000528  00000-0 -13255-4 0  9992,2 52556  53.2171 283.2754 0001170  97.0849 263.0278 15.12111557 97071,6907.899,95.231,530.572,528.955,0.0
52556.0,STARLINK-3763,PAYLOAD,2024-02-10 21:21:08,15.12112154,0.0001192,53.2172,279.1032,98.6658,261.447,2.5296e-06,-2.53e-06,0.0,0 STARLINK-3763,1 52556U 22051Z   24041.88967962 -.00000253  00000-0  25296-5 0  9999,2 52556  53.2172 279.1032 0001192  98.6658 261.4470 15.12112154 97287,6907.897,95.231,530.585,528.938,0.0
52556.0,STARLINK-3763,PAYLOAD,2024-02-10 22:56:19,15.12112657,0.0001219,53.2174,278.8056,101.2793,258.8337,6.7861e-06,-1.79e-06,0.0,0 STARLINK-3763,1 52556U 22051Z   24041.95577556 -.00000179  00000-0  67861-5 0  9994,2 52556  53.2174 278.8056 0001219 101.2793 258.8337 15.12112657 97226,6907.895,95.231,530.602,528.918,0.0
52556.0,STARLINK-3763,PAYLOAD,2024-02-11 00:31:29,15.12113212,0.0001184,53.2172,278.5055,94.4456,265.6673,9.0475e-06,-1.4e-06,0.0,0 STARLINK-3763,1 52556U 22051Z   24042.02187161 -.00000140  00000-0  90475-5 0  9997,2 52556  53.2172 278.5055 0001184  94.4456 265.6673 15.12113212 97238,6907.894,95.231,530.576,528.941,0.0
52556.0,STARLINK-3763,PAYLOAD,2024-02-11 21:08:49,15.12114361,0.0001192,53.2169,274.6281,91.006,269.107,1.9882e-05,4.9e-07,0.0,0 STARLINK-3763,1 52556U 22051Z   24042.88112386  .00000049  00000-0  19882-4 0  9997,2 52556  53.2169 274.6281 0001192  91.0060 269.1070 15.12114361 97365,6907.89,95.231,530.578,528.932,0.0
52556.0,STARLINK-3763,PAYLOAD,2024-02-11 22:43:59,15.12116136,0.0001199,53.2171,274.3301,86.5868,273.5262,3.4161e-05,2.98e-06,0.0,0 STARLINK-3763,1 52556U 22051Z   24042.94721878  .00000298  00000-0  34161-4 0  9999,2 52556  53.2171 274.3301 0001199  86.5868 273.5262 15.12116136 97443,6907.885,95.231,530.578,528.921,0.0
52556.0,STARLINK-3763,PAYLOAD,2024-02-12 14:35:47,15.12113124,0.000123,53.2171,271.3516,83.9733,276.1401,-2.2378e-05,-6.87e-06,0.0,0 STARLINK-3763,1 52556U 22051Z   24043.60818793 -.00000687  00000-0 -22378-4 0  9997,2 52556  53.2171 271.3516 0001230  83.9733 276.1401 15.12113124 97477,6907.894,95.231,530.608,528.909,0.0
52556.0,STARLINK-3763,PAYLOAD,2024-02-12 19:21:19,15.12111818,0.0001236,53.2171,270.4558,82.1404,277.973,-3.0521e-05,-8.29e-06,0.0,0 STARLINK-3763,1 52556U 22051Z   24043.80647874 -.00000829  00000-0 -30521-4 0  9996,2 52556  53.2171 270.4558 0001236  82.1404 277.9730 15.12111818 97578,6907.898,95.231,530.617,528.909,0.0
